CCSDS_OMM_VERS = 2.0
CREATION_DATE  = 
ORIGINATOR     = 

OBJECT_NAME    = SOYUZ-MS 28
OBJECT_ID      = 2025-275A
CENTER_NAME    = EARTH
REF_FRAME      = TEME
TIME_SYSTEM    = UTC
MEAN_ELEMENT_THEORY = SGP/SGP4

EPOCH          = 2025-12-23T12:05:53.115072
MEAN_MOTION    = 15.49754932
ECCENTRICITY   = .0003169
INCLINATION    = 51.6323
RA_OF_ASC_NODE = 89.1709
ARG_OF_PERICENTER = 291.0240
MEAN_ANOMALY   = 69.0409

EPHEMERIS_TYPE = 0
CLASSIFICATION_TYPE = U
NORAD_CAT_ID   = 66664
ELEMENT_SET_NO = 999
REV_AT_EPOCH   = 411
BSTAR          = .21071E-3
MEAN_MOTION_DOT = .11486E-3
MEAN_MOTION_DDOT = 0

CCSDS_OMM_VERS = 2.0
CREATION_DATE  = 
ORIGINATOR     = 

OBJECT_NAME    = 1998-067XS
OBJECT_ID      = 1998-067XS
CENTER_NAME    = EARTH
REF_FRAME      = TEME
TIME_SYSTEM    = UTC
MEAN_ELEMENT_THEORY = SGP/SGP4

EPOCH          = 2025-12-23T13:19:00.111360
MEAN_MOTION    = 15.51136039
ECCENTRICITY   = .0002815
INCLINATION    = 51.6316
RA_OF_ASC_NODE = 88.7613
ARG_OF_PERICENTER = 256.8779
MEAN_ANOMALY   = 103.1896

EPHEMERIS_TYPE = 0
CLASSIFICATION_TYPE = U
NORAD_CAT_ID   = 66906
ELEMENT_SET_NO = 999
REV_AT_EPOCH   = 329
BSTAR          = .48513E-3
MEAN_MOTION_DOT = .2847E-3
MEAN_MOTION_DDOT = 0

CCSDS_OMM_VERS = 2.0
CREATION_DATE  = 
ORIGINATOR     = 

OBJECT_NAME    = 1998-067XT
OBJECT_ID      = 1998-067XT
CENTER_NAME    = EARTH
REF_FRAME      = TEME
TIME_SYSTEM    = UTC
MEAN_ELEMENT_THEORY = SGP/SGP4

EPOCH          = 2025-12-23T11:29:49.841376
MEAN_MOTION    = 15.52745506
ECCENTRICITY   = .0003882
INCLINATION    = 51.6313
RA_OF_ASC_NODE = 89.0045
ARG_OF_PERICENTER = 291.7662
MEAN_ANOMALY   = 68.2915

EPHEMERIS_TYPE = 0
CLASSIFICATION_TYPE = U
NORAD_CAT_ID   = 66907
ELEMENT_SET_NO = 999
REV_AT_EPOCH   = 328
BSTAR          = .10349E-2
MEAN_MOTION_DOT = .65231E-3
MEAN_MOTION_DDOT = 0

CCSDS_OMM_VERS = 2.0
CREATION_DATE  = 
ORIGINATOR     = 

OBJECT_NAME    = 1998-067XU
OBJECT_ID      = 1998-067XU
CENTER_NAME    = EARTH
REF_FRAME      = TEME
TIME_SYSTEM    = UTC
MEAN_ELEMENT_THEORY = SGP/SGP4

EPOCH          = 2025-12-23T11:28:24.726144
MEAN_MOTION    = 15.52842233
ECCENTRICITY   = .0003921
INCLINATION    = 51.6312
RA_OF_ASC_NODE = 88.9976
ARG_OF_PERICENTER = 289.9814
MEAN_ANOMALY   = 70.0754

EPHEMERIS_TYPE = 0
CLASSIFICATION_TYPE = U
NORAD_CAT_ID   = 66908
ELEMENT_SET_NO = 999
REV_AT_EPOCH   = 328
BSTAR          = .10207E-2
MEAN_MOTION_DOT = .64549E-3
MEAN_MOTION_DDOT = 0

CCSDS_OMM_VERS = 2.0
CREATION_DATE  = 
ORIGINATOR     = 

OBJECT_NAME    = SILVERSAT
OBJECT_ID      = 1998-067XV
CENTER_NAME    = EARTH
REF_FRAME      = TEME
TIME_SYSTEM    = UTC
MEAN_ELEMENT_THEORY = SGP/SGP4

EPOCH          = 2025-12-22T12:16:28.422912
MEAN_MOTION    = 15.52898333
ECCENTRICITY   = .0003866
INCLINATION    = 51.6306
RA_OF_ASC_NODE = 93.7929
ARG_OF_PERICENTER = 288.2093
MEAN_ANOMALY   = 71.8476

EPHEMERIS_TYPE = 0
CLASSIFICATION_TYPE = U
NORAD_CAT_ID   = 66909
ELEMENT_SET_NO = 999
REV_AT_EPOCH   = 313
BSTAR          = .11325313E-2
MEAN_MOTION_DOT = .71888E-3
MEAN_MOTION_DDOT = 0

CCSDS_OMM_VERS = 2.0
CREATION_DATE  = 
ORIGINATOR     = 

OBJECT_NAME    = 1998-067XW
OBJECT_ID      = 1998-067XW
CENTER_NAME    = EARTH
REF_FRAME      = TEME
TIME_SYSTEM    = UTC
MEAN_ELEMENT_THEORY = SGP/SGP4

EPOCH          = 2025-12-23T11:23:56.480928
MEAN_MOTION    = 15.52989430
ECCENTRICITY   = .0003988
INCLINATION    = 51.6309
RA_OF_ASC_NODE = 88.9767
ARG_OF_PERICENTER = 265.4983
MEAN_ANOMALY   = 94.5551

EPHEMERIS_TYPE = 0
CLASSIFICATION_TYPE = U
NORAD_CAT_ID   = 66910
ELEMENT_SET_NO = 999
REV_AT_EPOCH   = 328
BSTAR          = .97986E-3
MEAN_MOTION_DOT = .62264E-3
MEAN_MOTION_DDOT = 0

CCSDS_OMM_VERS = 2.0
CREATION_DATE  = 
ORIGINATOR     = 

OBJECT_NAME    = 1998-067XX
OBJECT_ID      = 1998-067XX
CENTER_NAME    = EARTH
REF_FRAME      = TEME
TIME_SYSTEM    = UTC
MEAN_ELEMENT_THEORY = SGP/SGP4

EPOCH          = 2025-12-23T12:51:49.426272
MEAN_MOTION    = 15.53470318
ECCENTRICITY   = .0003682
INCLINATION    = 51.6308
RA_OF_ASC_NODE = 88.6344
ARG_OF_PERICENTER = 272.7322
MEAN_ANOMALY   = 87.3247

EPHEMERIS_TYPE = 0
CLASSIFICATION_TYPE = U
NORAD_CAT_ID   = 66911
ELEMENT_SET_NO = 999
REV_AT_EPOCH   = 328
BSTAR          = .11146E-2
MEAN_MOTION_DOT = .72234E-3
MEAN_MOTION_DDOT = 0

CCSDS_OMM_VERS = 2.0
CREATION_DATE  = 
ORIGINATOR     = 

OBJECT_NAME    = 1998-067XY
OBJECT_ID      = 1998-067XY
CENTER_NAME    = EARTH
REF_FRAME      = TEME
TIME_SYSTEM    = UTC
MEAN_ELEMENT_THEORY = SGP/SGP4

EPOCH          = 2025-12-22T13:57:42.061248
MEAN_MOTION    = 15.52056622
ECCENTRICITY   = .00039127
INCLINATION    = 51.6324
RA_OF_ASC_NODE = 93.5129
ARG_OF_PERICENTER = 278.0711
MEAN_ANOMALY   = 81.9835

EPHEMERIS_TYPE = 0
CLASSIFICATION_TYPE = U
NORAD_CAT_ID   = 66912
ELEMENT_SET_NO = 999
REV_AT_EPOCH   = 313
BSTAR          = .86867978E-3
MEAN_MOTION_DOT = .5325E-3
MEAN_MOTION_DDOT = 0

